CCSDS_OMM_VERS = 2.0
CREATION_DATE  = 
ORIGINATOR     = 

OBJECT_NAME    = STARLINK-36071
OBJECT_ID      = 2025-278T
CENTER_NAME    = EARTH
REF_FRAME      = TEME
TIME_SYSTEM    = UTC
MEAN_ELEMENT_THEORY = SGP/SGP4

EPOCH          = 2025-12-20T22:00:01.999584
MEAN_MOTION    = 15.60610340
ECCENTRICITY   = .00016456
INCLINATION    = 42.9988
RA_OF_ASC_NODE = 202.4319
ARG_OF_PERICENTER = 272.9070
MEAN_ANOMALY   = 135.7560

EPHEMERIS_TYPE = 0
CLASSIFICATION_TYPE = U
NORAD_CAT_ID   = 66808
ELEMENT_SET_NO = 999
REV_AT_EPOCH   = 427
BSTAR          = -.25624478E-1
MEAN_MOTION_DOT = -.1923754E-1
MEAN_MOTION_DDOT = 0

CCSDS_OMM_VERS = 2.0
CREATION_DATE  = 
ORIGINATOR     = 

OBJECT_NAME    = STARLINK-35979
OBJECT_ID      = 2025-278U
CENTER_NAME    = EARTH
REF_FRAME      = TEME
TIME_SYSTEM    = UTC
MEAN_ELEMENT_THEORY = SGP/SGP4

EPOCH          = 2025-12-20T22:00:01.999584
MEAN_MOTION    = 15.60620974
ECCENTRICITY   = .0001569
INCLINATION    = 42.9994
RA_OF_ASC_NODE = 202.4160
ARG_OF_PERICENTER = 271.9367
MEAN_ANOMALY   = 142.4748

EPHEMERIS_TYPE = 0
CLASSIFICATION_TYPE = U
NORAD_CAT_ID   = 66809
ELEMENT_SET_NO = 999
REV_AT_EPOCH   = 427
BSTAR          = -.25923495E-1
MEAN_MOTION_DOT = -.194417E-1
MEAN_MOTION_DDOT = 0

CCSDS_OMM_VERS = 2.0
CREATION_DATE  = 
ORIGINATOR     = 

OBJECT_NAME    = STARLINK-36046
OBJECT_ID      = 2025-278V
CENTER_NAME    = EARTH
REF_FRAME      = TEME
TIME_SYSTEM    = UTC
MEAN_ELEMENT_THEORY = SGP/SGP4

EPOCH          = 2025-12-20T22:00:01.999584
MEAN_MOTION    = 15.60622609
ECCENTRICITY   = .00015592
INCLINATION    = 42.9997
RA_OF_ASC_NODE = 202.4272
ARG_OF_PERICENTER = 272.0106
MEAN_ANOMALY   = 138.5665

EPHEMERIS_TYPE = 0
CLASSIFICATION_TYPE = U
NORAD_CAT_ID   = 66810
ELEMENT_SET_NO = 999
REV_AT_EPOCH   = 404
BSTAR          = -.2598842E-1
MEAN_MOTION_DOT = -.1948556E-1
MEAN_MOTION_DDOT = 0

CCSDS_OMM_VERS = 2.0
CREATION_DATE  = 
ORIGINATOR     = 

OBJECT_NAME    = STARLINK-36045
OBJECT_ID      = 2025-278W
CENTER_NAME    = EARTH
REF_FRAME      = TEME
TIME_SYSTEM    = UTC
MEAN_ELEMENT_THEORY = SGP/SGP4

EPOCH          = 2025-12-20T22:00:01.999584
MEAN_MOTION    = 15.60622684
ECCENTRICITY   = .00015519
INCLINATION    = 42.9996
RA_OF_ASC_NODE = 202.4218
ARG_OF_PERICENTER = 271.7371
MEAN_ANOMALY   = 140.7571

EPHEMERIS_TYPE = 0
CLASSIFICATION_TYPE = U
NORAD_CAT_ID   = 66811
ELEMENT_SET_NO = 999
REV_AT_EPOCH   = 427
BSTAR          = -.25987797E-1
MEAN_MOTION_DOT = -.1948514E-1
MEAN_MOTION_DDOT = 0

CCSDS_OMM_VERS = 2.0
CREATION_DATE  = 
ORIGINATOR     = 

OBJECT_NAME    = STARLINK-36054
OBJECT_ID      = 2025-278X
CENTER_NAME    = EARTH
REF_FRAME      = TEME
TIME_SYSTEM    = UTC
MEAN_ELEMENT_THEORY = SGP/SGP4

EPOCH          = 2025-12-20T22:00:01.999584
MEAN_MOTION    = 15.60621687
ECCENTRICITY   = .00016234
INCLINATION    = 42.9996
RA_OF_ASC_NODE = 202.4123
ARG_OF_PERICENTER = 270.3486
MEAN_ANOMALY   = 145.9808

EPHEMERIS_TYPE = 0
CLASSIFICATION_TYPE = U
NORAD_CAT_ID   = 66812
ELEMENT_SET_NO = 999
REV_AT_EPOCH   = 427
BSTAR          = -.25989316E-1
MEAN_MOTION_DOT = -.19486E-1
MEAN_MOTION_DDOT = 0

CCSDS_OMM_VERS = 2.0
CREATION_DATE  = 
ORIGINATOR     = 

OBJECT_NAME    = STARLINK-36042
OBJECT_ID      = 2025-278Y
CENTER_NAME    = EARTH
REF_FRAME      = TEME
TIME_SYSTEM    = UTC
MEAN_ELEMENT_THEORY = SGP/SGP4

EPOCH          = 2025-12-20T22:00:01.999584
MEAN_MOTION    = 15.60619392
ECCENTRICITY   = .00015619
INCLINATION    = 42.9997
RA_OF_ASC_NODE = 202.4067
ARG_OF_PERICENTER = 273.6540
MEAN_ANOMALY   = 144.5946

EPHEMERIS_TYPE = 0
CLASSIFICATION_TYPE = U
NORAD_CAT_ID   = 66813
ELEMENT_SET_NO = 999
REV_AT_EPOCH   = 427
BSTAR          = -.25947937E-1
MEAN_MOTION_DOT = -.1945672E-1
MEAN_MOTION_DDOT = 0

CCSDS_OMM_VERS = 2.0
CREATION_DATE  = 
ORIGINATOR     = 

OBJECT_NAME    = STARLINK-35984
OBJECT_ID      = 2025-278Z
CENTER_NAME    = EARTH
REF_FRAME      = TEME
TIME_SYSTEM    = UTC
MEAN_ELEMENT_THEORY = SGP/SGP4

EPOCH          = 2025-12-20T22:00:01.999584
MEAN_MOTION    = 15.60618305
ECCENTRICITY   = .00015989
INCLINATION    = 42.9992
RA_OF_ASC_NODE = 202.3773
ARG_OF_PERICENTER = 268.5626
MEAN_ANOMALY   = 161.1866

EPHEMERIS_TYPE = 0
CLASSIFICATION_TYPE = U
NORAD_CAT_ID   = 66814
ELEMENT_SET_NO = 999
REV_AT_EPOCH   = 436
BSTAR          = -.25893732E-1
MEAN_MOTION_DOT = -.1942049E-1
MEAN_MOTION_DDOT = 0

CCSDS_OMM_VERS = 2.0
CREATION_DATE  = 
ORIGINATOR     = 

OBJECT_NAME    = STARLINK-35985
OBJECT_ID      = 2025-278AA
CENTER_NAME    = EARTH
REF_FRAME      = TEME
TIME_SYSTEM    = UTC
MEAN_ELEMENT_THEORY = SGP/SGP4

EPOCH          = 2025-12-20T22:00:01.999584
MEAN_MOTION    = 15.60621443
ECCENTRICITY   = .00015715
INCLINATION    = 42.9994
RA_OF_ASC_NODE = 202.3823
ARG_OF_PERICENTER = 274.0357
MEAN_ANOMALY   = 153.7951

EPHEMERIS_TYPE = 0
CLASSIFICATION_TYPE = U
NORAD_CAT_ID   = 66815
ELEMENT_SET_NO = 999
REV_AT_EPOCH   = 436
BSTAR          = -.25952912E-1
MEAN_MOTION_DOT = -.1946144E-1
MEAN_MOTION_DDOT = 0

CCSDS_OMM_VERS = 2.0
CREATION_DATE  = 
ORIGINATOR     = 

OBJECT_NAME    = STARLINK-36098
OBJECT_ID      = 2025-278AB
CENTER_NAME    = EARTH
REF_FRAME      = TEME
TIME_SYSTEM    = UTC
MEAN_ELEMENT_THEORY = SGP/SGP4

EPOCH          = 2025-12-20T22:00:01.999584
MEAN_MOTION    = 15.60621636
ECCENTRICITY   = .00016302
INCLINATION    = 42.9998
RA_OF_ASC_NODE = 202.4020
ARG_OF_PERICENTER = 271.8669
MEAN_ANOMALY   = 148.2960

EPHEMERIS_TYPE = 0
CLASSIFICATION_TYPE = U
NORAD_CAT_ID   = 66816
ELEMENT_SET_NO = 999
REV_AT_EPOCH   = 411
BSTAR          = -.25975521E-1
MEAN_MOTION_DOT = -.1947691E-1
MEAN_MOTION_DDOT = 0

CCSDS_OMM_VERS = 2.0
CREATION_DATE  = 
ORIGINATOR     = 

OBJECT_NAME    = STARLINK-35995
OBJECT_ID      = 2025-278AC
CENTER_NAME    = EARTH
REF_FRAME      = TEME
TIME_SYSTEM    = UTC
MEAN_ELEMENT_THEORY = SGP/SGP4

EPOCH          = 2025-12-20T22:00:01.999584
MEAN_MOTION    = 15.60621167
ECCENTRICITY   = .00016401
INCLINATION    = 42.9992
RA_OF_ASC_NODE = 202.3919
ARG_OF_PERICENTER = 273.0532
MEAN_ANOMALY   = 150.9465

EPHEMERIS_TYPE = 0
CLASSIFICATION_TYPE = U
NORAD_CAT_ID   = 66817
ELEMENT_SET_NO = 999
REV_AT_EPOCH   = 427
BSTAR          = -.26009951E-1
MEAN_MOTION_DOT = -.1949939E-1
MEAN_MOTION_DDOT = 0

CCSDS_OMM_VERS = 2.0
CREATION_DATE  = 
ORIGINATOR     = 

OBJECT_NAME    = STARLINK-35994
OBJECT_ID      = 2025-278AD
CENTER_NAME    = EARTH
REF_FRAME      = TEME
TIME_SYSTEM    = UTC
MEAN_ELEMENT_THEORY = SGP/SGP4

EPOCH          = 2025-12-20T22:00:01.999584
MEAN_MOTION    = 15.60620525
ECCENTRICITY   = .00015757
INCLINATION    = 42.9996
RA_OF_ASC_NODE = 202.3978
ARG_OF_PERICENTER = 268.9548
MEAN_ANOMALY   = 153.1245

EPHEMERIS_TYPE = 0
CLASSIFICATION_TYPE = U
NORAD_CAT_ID   = 66818
ELEMENT_SET_NO = 999
REV_AT_EPOCH   = 427
BSTAR          = -.25941926E-1
MEAN_MOTION_DOT = -.1945361E-1
MEAN_MOTION_DDOT = 0

CCSDS_OMM_VERS = 2.0
CREATION_DATE  = 
ORIGINATOR     = 

OBJECT_NAME    = STARLINK-35989
OBJECT_ID      = 2025-278AE
CENTER_NAME    = EARTH
REF_FRAME      = TEME
TIME_SYSTEM    = UTC
MEAN_ELEMENT_THEORY = SGP/SGP4

EPOCH          = 2025-12-20T22:00:01.999584
MEAN_MOTION    = 15.60621750
ECCENTRICITY   = .00015692
INCLINATION    = 42.9991
RA_OF_ASC_NODE = 202.3872
ARG_OF_PERICENTER = 269.3942
MEAN_ANOMALY   = 156.5183

EPHEMERIS_TYPE = 0
CLASSIFICATION_TYPE = U
NORAD_CAT_ID   = 66819
ELEMENT_SET_NO = 999
REV_AT_EPOCH   = 427
BSTAR          = -.25946294E-1
MEAN_MOTION_DOT = -.1945727E-1
MEAN_MOTION_DDOT = 0

