STARLINK-36071          
1 66808U 25278T   25354.91668981 -.01923754  00000+0 -25624-1 0  9991
2 66808  42.9988 202.4319 0001645 272.9070 135.7560 15.60610340  4270
STARLINK-35979          
1 66809U 25278U   25354.91668981 -.01944170  00000+0 -25923-1 0  9999
2 66809  42.9994 202.4160 0001569 271.9367 142.4748 15.60620974  4272
STARLINK-36046          
1 66810U 25278V   25354.91668981 -.01948556  00000+0 -25988-1 0  9994
2 66810  42.9997 202.4272 0001559 272.0106 138.5665 15.60622609  4049
STARLINK-36045          
1 66811U 25278W   25354.91668981 -.01948514  00000+0 -25988-1 0  9999
2 66811  42.9996 202.4218 0001551 271.7371 140.7571 15.60622684  4270
STARLINK-36054          
1 66812U 25278X   25354.91668981 -.01948600  00000+0 -25989-1 0  9997
2 66812  42.9996 202.4123 0001623 270.3486 145.9808 15.60621687  4270
STARLINK-36042          
1 66813U 25278Y   25354.91668981 -.01945672  00000+0 -25948-1 0  9999
2 66813  42.9997 202.4067 0001561 273.6540 144.5946 15.60619392  4275
STARLINK-35984          
1 66814U 25278Z   25354.91668981 -.01942049  00000+0 -25894-1 0  9995
2 66814  42.9992 202.3773 0001598 268.5626 161.1866 15.60618305  4361
STARLINK-35985          
1 66815U 25278AA  25354.91668981 -.01946144  00000+0 -25953-1 0  9992
2 66815  42.9994 202.3823 0001571 274.0357 153.7951 15.60621443  4363
STARLINK-36098          
1 66816U 25278AB  25354.91668981 -.01947691  00000+0 -25976-1 0  9996
2 66816  42.9998 202.4020 0001630 271.8669 148.2960 15.60621636  4111
STARLINK-35995          
1 66817U 25278AC  25354.91668981 -.01949939  00000+0 -26010-1 0  9994
2 66817  42.9992 202.3919 0001640 273.0532 150.9465 15.60621167  4272
STARLINK-35994          
1 66818U 25278AD  25354.91668981 -.01945361  00000+0 -25942-1 0  9993
2 66818  42.9996 202.3978 0001575 268.9548 153.1245 15.60620525  4277
STARLINK-35989          
1 66819U 25278AE  25354.91668981 -.01945727  00000+0 -25946-1 0  9994
2 66819  42.9991 202.3872 0001569 269.3942 156.5183 15.60621750  4271
